NORAD_CAT_ID,OBJECT_NAME,OBJECT_TYPE,EPOCH,MEAN_MOTION,ECCENTRICITY,INCLINATION,RA_OF_ASC_NODE,ARG_OF_PERICENTER,MEAN_ANOMALY,BSTAR,MEAN_MOTION_DOT,MEAN_MOTION_DDOT,TLE_LINE0,TLE_LINE1,TLE_LINE2,SEMIMAJOR_AXIS,PERIOD,APOGEE,PERIGEE,DECAYED
49152.0,STARLINK-3081,PAYLOAD,2024-05-18 23:05:39,14.98332619,0.0003076,69.9989,117.8495,270.5948,89.4859,-3.4059e-05,-4.99e-06,0.0,0 STARLINK-3081,1 49152U 21082Y   24139.96226141 -.00000499  00000-0 -34059-4 0  9993,2 49152  69.9989 117.8495 0003076 270.5948  89.4859 14.98332619149260,6950.185,96.107,574.188,569.912,0.0
49152.0,STARLINK-3081,PAYLOAD,2024-05-19 05:30:11,14.98332475,0.0003053,69.999,117.1762,270.7804,89.3005,3.4977e-06,-5.1e-07,0.0,0 STARLINK-3081,1 49152U 21082Y   24140.22929996 -.00000051  00000-0  34977-5 0  9995,2 49152  69.9990 117.1762 0003053 270.7804  89.3005 14.98332475149318,6950.185,96.107,574.172,569.928,0.0
49152.0,STARLINK-3081,PAYLOAD,2024-05-19 08:42:27,14.9833321,0.0003037,69.999,116.8395,270.8693,89.2118,1.3968e-05,7.4e-07,0.0,0 STARLINK-3081,1 49152U 21082Y   24140.36281901  .00000074  00000-0  13968-4 0  9997,2 49152  69.9990 116.8395 0003037 270.8693  89.2118 14.98333210149328,6950.183,96.107,574.159,569.937,0.0
49152.0,STARLINK-3081,PAYLOAD,2024-05-20 08:44:28,14.98329049,0.000297,69.9992,114.3148,271.4754,88.6065,4.3759e-05,4.29e-06,0.0,0 STARLINK-3081,1 49152U 21082Y   24141.36422102  .00000429  00000-0  43759-4 0  9993,2 49152  69.9992 114.3148 0002970 271.4754  88.6065 14.98329049149485,6950.196,96.107,574.125,569.997,0.0
49152.0,STARLINK-3081,PAYLOAD,2024-05-21 07:10:21,14.98329022,0.0002873,69.9994,111.9588,268.6743,91.4087,-4.2243e-06,-1.43e-06,0.0,0 STARLINK-3081,1 49152U 21082Y   24142.29886264 -.00000143  00000-0 -42243-5 0  9992,2 49152  69.9994 111.9588 0002873 268.6743  91.4087 14.98329022149618,6950.196,96.107,574.058,570.064,0.0
49152.0,STARLINK-3081,PAYLOAD,2024-05-21 21:35:34,14.98328734,0.000286,69.9993,110.4433,263.6152,96.4681,1.7863e-05,1.2e-06,0.0,0 STARLINK-3081,1 49152U 21082Y   24142.89970197  .00000120  00000-0  17863-4 0  9999,2 49152  69.9993 110.4433 0002860 263.6152  96.4681 14.98328734149710,6950.197,96.107,574.05,570.074,0.0
49152.0,STARLINK-3081,PAYLOAD,2024-05-22 07:12:22,14.98328791,0.0002862,69.9994,109.4334,262.3499,97.7335,1.6344e-05,1.02e-06,0.0,0 STARLINK-3081,1 49152U 21082Y   24143.30026211  .00000102  00000-0  16344-4 0  9998,2 49152  69.9994 109.4334 0002862 262.3499  97.7335 14.98328791149769,6950.197,96.107,574.051,570.072,0.0
49152.0,STARLINK-3081,PAYLOAD,2024-05-22 21:37:35,14.98329659,0.0002891,69.9993,107.9185,264.9297,95.1532,3.2383e-05,2.93e-06,0.0,0 STARLINK-3081,1 49152U 21082Y   24143.90110128  .00000293  00000-0  32383-4 0  9997,2 49152  69.9993 107.9185 0002891 264.9297  95.1532 14.98329659149856,6950.194,96.107,574.068,570.05,0.0
49152.0,STARLINK-3081,PAYLOAD,2024-05-23 04:02:07,14.98328821,0.0002916,69.9993,107.2454,265.4273,94.6553,1.8738e-05,1.31e-06,0.0,0 STARLINK-3081,1 49152U 21082Y   24144.16814227  .00000131  00000-0  18738-4 0  9996,2 49152  69.9993 107.2454 0002916 265.4273  94.6553 14.98328821149909,6950.197,96.107,574.088,570.035,0.0
49152.0,STARLINK-3081,PAYLOAD,2024-05-23 07:14:23,14.98329306,0.0002909,69.9994,106.9089,265.1896,94.8931,2.2926e-05,1.81e-06,0.0,0 STARLINK-3081,1 49152U 21082Y   24144.30166189  .00000181  00000-0  22926-4 0  9998,2 49152  69.9994 106.9089 0002909 265.1896  94.8931 14.98329306149912,6950.195,96.107,574.082,570.038,0.0
49152.0,STARLINK-3081,PAYLOAD,2024-05-23 21:39:35,14.98331918,0.0002978,69.9993,105.3937,267.5458,92.536,3.2788e-05,2.98e-06,0.0,0 STARLINK-3081,1 49152U 21082Y   24144.90249963  .00000298  00000-0  32788-4 0  9992,2 49152  69.9993 105.3937 0002978 267.5458  92.5360 14.98331918150007,6950.187,96.107,574.122,569.982,0.0
49152.0,STARLINK-3081,PAYLOAD,2024-05-24 04:04:08,14.98332895,0.0002964,69.9993,104.7202,267.1458,92.9362,4.2792e-05,4.18e-06,0.0,0 STARLINK-3081,1 49152U 21082Y   24145.16953827  .00000418  00000-0  42792-4 0  9992,2 49152  69.9993 104.7202 0002964 267.1458  92.9362 14.98332895150052,6950.184,96.107,574.109,569.989,0.0
49152.0,STARLINK-3081,PAYLOAD,2024-05-24 07:16:24,14.98333978,0.0002944,69.9994,104.3838,266.9293,93.153,5.3976e-05,5.51e-06,0.0,0 STARLINK-3081,1 49152U 21082Y   24145.30305695  .00000551  00000-0  53976-4 0  9996,2 49152  69.9994 104.3838 0002944 266.9293  93.1530 14.98333978150060,6950.181,96.107,574.092,569.999,0.0
49152.0,STARLINK-3081,PAYLOAD,2024-05-24 21:41:36,14.98329589,0.0002829,69.9997,102.8692,265.8203,94.2633,1.4993e-05,8.6e-07,0.0,0 STARLINK-3081,1 49152U 21082Y   24145.90389995  .00000086  00000-0  14993-4 0  9996,2 49152  69.9997 102.8692 0002829 265.8203  94.2633 14.98329589150154,6950.194,96.107,574.025,570.093,0.0
49152.0,STARLINK-3081,PAYLOAD,2024-05-25 04:06:09,14.98328735,0.000285,69.9996,102.1963,265.4845,94.5989,8.9477e-07,-8.2e-07,0.0,0 STARLINK-3081,1 49152U 21082Y   24146.17094085 -.00000082  00000-0  89477-6 0  9997,2 49152  69.9996 102.1963 0002850 265.4845  94.5989 14.98328735150204,6950.197,96.107,574.043,570.081,0.0
49152.0,STARLINK-3081,PAYLOAD,2024-05-25 13:42:57,14.98329405,0.0002811,69.9997,101.1858,267.5585,92.5252,-2.3353e-05,-3.72e-06,0.0,0 STARLINK-3081,1 49152U 21082Y   24146.57150148 -.00000372  00000-0 -23353-4 0  9996,2 49152  69.9997 101.1858 0002811 267.5585  92.5252 14.98329405150259,6950.195,96.107,574.013,570.106,0.0
49152.0,STARLINK-3081,PAYLOAD,2024-05-26 04:08:10,14.98332685,0.0002881,69.9995,99.6701,269.6754,90.4075,-5.9833e-06,-1.64e-06,0.0,0 STARLINK-3081,1 49152U 21082Y   24147.17233806 -.00000164  00000-0 -59833-5 0  9998,2 49152  69.9995  99.6701 0002881 269.6754  90.4075 14.98332685150358,6950.185,96.107,574.052,570.047,0.0
49152.0,STARLINK-3081,PAYLOAD,2024-05-26 07:20:26,14.98332892,0.0002877,69.9995,99.3335,269.5106,90.5723,-2.9909e-06,-1.29e-06,0.0,0 STARLINK-3081,1 49152U 21082Y   24147.30585761 -.00000129  00000-0 -29909-5 0  9995,2 49152  69.9995  99.3335 0002877 269.5106  90.5723 14.98332892150365,6950.184,96.107,574.049,570.049,0.0
49152.0,STARLINK-3081,PAYLOAD,2024-05-26 21:45:38,14.98328808,0.0002876,69.9995,97.8186,270.4119,89.671,2.9331e-05,2.57e-06,0.0,0 STARLINK-3081,1 49152U 21082Y   24147.90669865  .00000257  00000-0  29331-4 0  9997,2 49152  69.9995  97.8186 0002876 270.4119  89.6710 14.98328808150453,6950.197,96.107,574.06,570.063,0.0
49152.0,STARLINK-3081,PAYLOAD,2024-05-27 04:10:10,14.9832964,0.0002865,69.9995,97.1453,269.9243,90.1588,3.6726e-05,3.45e-06,0.0,0 STARLINK-3081,1 49152U 21082Y   24148.17373797  .00000345  00000-0  36726-4 0  9997,2 49152  69.9995  97.1453 0002865 269.9243  90.1588 14.98329640150503,6950.194,96.107,574.05,570.068,0.0
49152.0,STARLINK-3081,PAYLOAD,2024-05-27 13:47:00,14.98322448,0.0002124,70.0011,96.1387,264.4377,95.654,4.1541e-06,-4.3e-07,0.0,0 STARLINK-3081,1 49152U 21082Y   24148.57430644 -.00000043  00000-0  41541-5 0  9994,2 49152  70.0011  96.1387 0002124 264.4377  95.6540 14.98322448150558,6950.216,96.107,573.557,570.605,0.0
49152.0,STARLINK-3081,PAYLOAD,2024-05-27 21:47:39,14.983278,0.0002732,69.9999,95.2941,266.6133,93.4714,-1.5791e-05,-2.81e-06,0.0,0 STARLINK-3081,1 49152U 21082Y   24148.90810067 -.00000281  00000-0 -15791-4 0  9994,2 49152  69.9999  95.2941 0002732 266.6133  93.4714 14.98327800150607,6950.2,96.107,573.963,570.166,0.0
49152.0,STARLINK-3081,PAYLOAD,2024-05-28 04:12:12,14.98326878,0.0002759,69.9999,94.6207,266.0001,94.0843,-2.6474e-05,-4.09e-06,0.0,0 STARLINK-3081,1 49152U 21082Y   24149.17514186 -.00000409  00000-0 -26474-4 0  9999,2 49152  69.9999  94.6207 0002759 266.0001  94.0843 14.98326878150651,6950.203,96.107,573.985,570.15,0.0
49152.0,STARLINK-3081,PAYLOAD,2024-05-28 05:48:20,14.98326992,0.0002762,69.9999,94.4524,266.1376,93.9467,-2.5244e-05,-3.94e-06,0.0,0 STARLINK-3081,1 49152U 21082Y   24149.24190186 -.00000394  00000-0 -25244-4 0  9994,2 49152  69.9999  94.4524 0002762 266.1376  93.9467 14.98326992150658,6950.202,96.107,573.987,570.148,0.0
49152.0,STARLINK-3081,PAYLOAD,2024-05-28 21:49:40,14.98331347,0.0002864,69.9997,92.7686,266.6789,93.4042,1.513e-05,8.8e-07,0.0,0 STARLINK-3081,1 49152U 21082Y   24149.90949778  .00000088  00000-0  15130-4 0  9997,2 49152  69.9997  92.7686 0002864 266.6789  93.4042 14.98331347150757,6950.189,96.107,574.044,570.063,0.0
49152.0,STARLINK-3081,PAYLOAD,2024-05-29 04:14:12,14.983319,0.0002843,69.9998,92.0956,266.2151,93.8683,2.2902e-05,1.8e-06,0.0,0 STARLINK-3081,1 49152U 21082Y   24150.17653695  .00000180  00000-0  22902-4 0  9996,2 49152  69.9998  92.0956 0002843 266.2151  93.8683 14.98331900150803,6950.187,96.107,574.028,570.076,0.0
49152.0,STARLINK-3081,PAYLOAD,2024-05-29 05:50:20,14.98332387,0.0002876,69.9998,91.9272,267.5462,92.5368,2.5447e-05,2.11e-06,0.0,0 STARLINK-3081,1 49152U 21082Y   24150.24329652  .00000211  00000-0  25447-4 0  9999,2 49152  69.9998  91.9272 0002876 267.5462  92.5368 14.98332387150803,6950.186,96.107,574.049,570.052,0.0
49152.0,STARLINK-3081,PAYLOAD,2024-05-29 21:51:41,14.98329352,0.0002932,69.9997,90.2441,268.2566,91.8257,3.4003e-05,3.13e-06,0.0,0 STARLINK-3081,1 49152U 21082Y   24150.91089772  .00000313  00000-0  34003-4 0  9990,2 49152  69.9997  90.2441 0002932 268.2566  91.8257 14.98329352150906,6950.195,96.107,574.098,570.022,0.0
49152.0,STARLINK-3081,PAYLOAD,2024-05-30 04:16:13,14.98331081,0.0002895,69.9998,89.5709,267.7534,92.3294,5.3361e-05,5.44e-06,0.0,0 STARLINK-3081,1 49152U 21082Y   24151.17793599  .00000544  00000-0  53361-4 0  9992,2 49152  69.9998  89.5709 0002895 267.7534  92.3294 14.98331081150956,6950.19,96.107,574.067,570.042,0.0
49152.0,STARLINK-3081,PAYLOAD,2024-05-30 05:52:21,14.98331613,0.0002911,69.9998,89.4024,268.5059,91.5767,5.7428e-05,5.92e-06,0.0,0 STARLINK-3081,1 49152U 21082Y   24151.24469548  .00000592  00000-0  57428-4 0  9995,2 49152  69.9998  89.4024 0002911 268.5059  91.5767 14.98331613150952,6950.188,96.107,574.076,570.03,0.0
